CCSDS_OMM_VERS = 2.0
CREATION_DATE  = 
ORIGINATOR     = 

OBJECT_NAME    = UNKNOWN
OBJECT_ID      = 
CENTER_NAME    = EARTH
REF_FRAME      = TEME
TIME_SYSTEM    = UTC
MEAN_ELEMENT_THEORY = SGP/SGP4

EPOCH          = 2026-02-24T01:37:59.893248
MEAN_MOTION    = 14.13380149
ECCENTRICITY   = .02178904
INCLINATION    = 88.9199
RA_OF_ASC_NODE = 283.1739
ARG_OF_PERICENTER = 143.3382
MEAN_ANOMALY   = 218.2942

EPHEMERIS_TYPE = 0
CLASSIFICATION_TYPE = U
NORAD_CAT_ID   = 270438
ELEMENT_SET_NO = 999
REV_AT_EPOCH   = 7755
BSTAR          = .48824828E-3
MEAN_MOTION_DOT = .1166E-4
MEAN_MOTION_DDOT = 0

