1 T0438U          26055.06805432  .00001166  00000-0  48825-3 0  9995
2 T0438  88.9199 283.1739 0217890 143.3382 218.2942 14.13380149 77551
